# Made by eph2tle, compiled Jan 26 2025 13:45:38
# Run at Sat Feb  1 15:50:33 2025 UTC
#
# No updates      (until more data comes in,  anyway)
#
#    The following TLEs (Two-Line Elements) were generated by fitting
# a numerically-integrated ephemeris,  based on the orbit given below,
# to the SDP4/SGP4 models.  Each TLE is good for the interval between
# its epoch and the epoch of the subsequent TLE (usually one day).
# The maximum deviation between the numerically integrated ephemerides
# and the TLE-based ephemeris, in kilometers,  is given for each TLE
# as the "worst residual".
#
#    This fitting is done using the 'eph2tle' code packaged with Find_Orb.
# The code has details on how the TLEs were computed :
#
#    https://github.com/Bill-Gray/find_orb/eph2tle.cpp
#
#    Be warned:  the error given is that between the numerically
# integrated ephems and the TLE model.  There will usually be at
# least some additional difference between the ephems and the actual
# motion of the satellite,  especially if the ephemerides are based
# on a short arc.  If the following orbital elements say something
# like "[based on] 10 observations 2015 Jan. 1-13",  and the TLEs
# are for 2015 May,  the extrapolation may be tenuous at best.  If
# your application requires a specific level of accuracy,  you may
# want to contact me;  I can give you some idea as to the fit of the
# underlying data (and possibly TLEs based on newer data).
#
#   You can usually find the underlying observational data,  and the
# fitted orbit,  residuals,  ephemerides,  and sometimes some comments
# about the object,  among the pages listed at
#
#    https://www.projectpluto.com/pluto/mpecs/pseudo.htm
#
#    WARNING:  The TLEs in this file are all fitted to SGP4,  even if
# they're in deep space (longer than a 225 minute period).  This is only
# done in cases where SDP4 fails or fits the ephemeris poorly.  The problem
# is that,  while SGP4 fits here,  many programs don't actually look at the
# ephemeris type code byte.  They will produce garbage results when using
# these TLEs.  (Sat_ID and all programs by me,  Bill Gray,  will use these
# TLEs correctly.  But I may be the only one doing that.)
#
#    If you're stuck with software that can't handle these TLEs,  please
# let me know.  I can probably provide "traditional" SDP4-fitted TLEs for
# the object in question.  They will be less precise,  but possibly good
# enough for your use case (and,  as with all the TLEs I produce,  the error
# will be a known quantity).
#
#    Also,  if you use a TLE outside the "correct" time range (between
# its MJD and that of the next TLE),  all bets are off.  I've carefully
# computed and minimized the worst error over the "correct" time frame,
# but the ephemeris may (or may not) diverge wildly outside of it.
#
# Ephem range: 60692.000000 60802.000000 1.000000
# Created Sat Feb  1 10:50:16 2025
# Ephemeris start: 17 Jan 2025  0:00:00
# Ephemeris end:    7 May 2025  0:00:00
# Times are all TDT
# Positions/velocities are in equatorial J2000
# Orbital elements:  Hakuto-R = 2025-010B = NORAD 62717
#    Perigee 2025 Jan 25.916699 +/- 2.09e-5 TT = 22:00:02.8 (JD 2460701.416699)
# Epoch 2025 Jan 31.0 TT = JDT 2460706.5                           Find_Orb
# M 169.441559527 +/- 0.0014          (J2000 equator)
# n  33.332980876 +/- 0.000175        Peri.  348.830228 +/- 0.00014
# a206389.4074 +/- 0.72               Node   358.254367 +/- 0.00007
# e   0.93971542 +/- 5.84e-7          Incl.   37.542043 +/- 0.00016
# P  10.7999d                H 30.17  G  0.15   U  6.9
# q 12442.09794 +/- 0.0861    Q 400336.7168 +/- 1.5
# 26 of 37 observations 2025 Jan. 23-31; mean residual 0".331
# SGP4 only: these TLEs are _not_ fitted to SDP4,  even for
# deep-space TLEs.  These may not work with your software.
#
# Elements after  6 Feb 2025 :
#
# Orbital elements:  Hakuto-R = 2025-010B = NORAD 62717
#    Perigee 2025 Apr 19.105250 +/- 0.00013287 TT;  Constraint: A=0.02
# dx: -23.072 +/- 0.0014146   dy: 5.4863 +/- 0.0018343
# dz: -13.014 +/- 0.0011501 m/s   T0: 2025 Feb 28.432 +/- 0.0013504
# Epoch 2025 Apr  8.0 TT = JDT 2460773.5                           Find_Orb
# M 302.616361288 +/- 0.0005012       (J2000 equator)
# n   5.167253240 +/- 1.7972e-5       Peri.  299.941300 +/- 0.0001865
# a715204.6707 +/- 1.6583             Node   356.346184 +/- 5.1908e-5
# e   0.42430260 +/- 4.0229e-6        Incl.   29.139022 +/- 0.0001108
# P  69.6682d                H 29.42  G  0.15   U  5.4
# q 411741.4661 +/- 3.822    Q 0.006809374 +/- 4.4959e-9
# 82 of 238 observations 2025 Feb. 6-Apr. 7; mean residual 0".570
#
# 1 NoradU COSPAR   Epoch.epoch     dn/dt/2  d2n/dt2/6 BSTAR    T El# C
# 2 NoradU Inclina RAAscNode Eccent  ArgPeri MeanAno  MeanMotion Rev# C

# Worst residual: 193.31 km
# MJD 60692.000000 (2025 Jan 17  0:00)
Hakuto-R = 2025-010B = NORAD 62717
1 62717U 25010B   25017.49919926  .00000000  00000-0  00000-0 2 25894
2 62717 035.4019 359.7670 9675331 346.0188 079.7036 00.10168743    00

# Worst residual: 247.47 km
# MJD 60693.000000 (2025 Jan 18  0:00)
Hakuto-R = 2025-010B = NORAD 62717
1 62717U 25010B   25018.49919926  .00000000  00000-0  00000-0 2 25895
2 62717 036.9928 358.8013 9590837 348.1878 109.1290 00.09680930    07

# Worst residual: 99.48 km
# MJD 60694.000000 (2025 Jan 19  0:00)
Hakuto-R = 2025-010B = NORAD 62717
1 62717U 25010B   25019.49919926  .00000000  00000-0  00000-0 2 25896
2 62717 037.1299 358.7232 9445807 349.2098 141.8175 00.09497052    01

# Worst residual: 40.79 km
# MJD 60695.000000 (2025 Jan 20  0:00)
Hakuto-R = 2025-010B = NORAD 62717
1 62717U 25010B   25020.49919926  .00000000  00000-0  00000-0 2 25898
2 62717 036.9577 358.7852 9378491 349.2582 176.4028 00.09452868    04

# Worst residual: 16.82 km
# MJD 60696.000000 (2025 Jan 21  0:00)
Hakuto-R = 2025-010B = NORAD 62717
1 62717U 25010B   25021.49919926  .00000000  00000-0  00000-0 2 25899
2 62717 036.8884 358.8025 9351987 349.1678 210.9952 00.09429390    07

# Worst residual: 14.54 km
# MJD 60697.000000 (2025 Jan 22  0:00)
Hakuto-R = 2025-010B = NORAD 62717
1 62717U 25010B   25022.49919926  .00000000  00000-0  00000-0 2 25890
2 62717 036.8829 358.8011 9342879 349.0848 245.4084 00.09408409    06

# Worst residual: 12.89 km
# MJD 60698.000000 (2025 Jan 23  0:00)
Hakuto-R = 2025-010B = NORAD 62717
1 62717U 25010B   25023.49919926  .00000000  00000-0  00000-0 2 25891
2 62717 036.9021 358.7972 9341145 349.0282 279.6233 00.09384853    04

# Worst residual: 10.25 km
# MJD 60699.000000 (2025 Jan 24  0:00)
Hakuto-R = 2025-010B = NORAD 62717
1 62717U 25010B   25024.49919926  .00000000  00000-0  00000-0 2 25892
2 62717 036.9209 358.7960 9341588 348.9856 313.6205 00.09355791    02

# Worst residual: 5.15 km
# MJD 60700.000000 (2025 Jan 25  0:00)
Hakuto-R = 2025-010B = NORAD 62717
1 62717U 25010B   25025.49919926  .00000000  00000-0  00000-0 2 25893
2 62717 036.9215 358.7937 9341430 348.9315 347.3582 00.09322033    04

# Worst residual: 8.89 km
# MJD 60701.000000 (2025 Jan 26  0:00)
Hakuto-R = 2025-010B = NORAD 62717
1 62717U 25010B   25026.49919926  .00000000  00000-0  00000-0 2 25894
2 62717 036.9246 358.7556 9342818 348.9519 020.8639 00.09298878    07

# Worst residual: 15.77 km
# MJD 60702.000000 (2025 Jan 27  0:00)
Hakuto-R = 2025-010B = NORAD 62717
1 62717U 25010B   25027.49919926  .00000000  00000-0  00000-0 2 25895
2 62717 036.9767 358.6993 9349227 348.9219 054.1983 00.09282548    06

# Worst residual: 18.16 km
# MJD 60703.000000 (2025 Jan 28  0:00)
Hakuto-R = 2025-010B = NORAD 62717
1 62717U 25010B   25028.49919926  .00000000  00000-0  00000-0 2 25896
2 62717 037.0860 358.6162 9360982 348.9046 087.3332 00.09268550    02

# Worst residual: 19.07 km
# MJD 60704.000000 (2025 Jan 29  0:00)
Hakuto-R = 2025-010B = NORAD 62717
1 62717U 25010B   25029.49919926  .00000000  00000-0  00000-0 2 25897
2 62717 037.2427 358.5243 9375357 348.9286 120.2820 00.09259338    03

# Worst residual: 18.08 km
# MJD 60705.000000 (2025 Jan 30  0:00)
Hakuto-R = 2025-010B = NORAD 62717
1 62717U 25010B   25030.49919926  .00000000  00000-0  00000-0 2 25899
2 62717 037.4173 358.4427 9390366 348.9899 153.0892 00.09256936    07

# Worst residual: 16.00 km
# MJD 60706.000000 (2025 Jan 31  0:00)
Hakuto-R = 2025-010B = NORAD 62717
1 62717U 25010B   25031.49919926  .00000000  00000-0  00000-0 2 25890
2 62717 037.5898 358.3790 9403811 349.0820 185.8320 00.09262673    04

# Worst residual: 16.24 km
# MJD 60707.000000 (2025 Feb  1  0:00)
Hakuto-R = 2025-010B = NORAD 62717
1 62717U 25010B   25032.49919926  .00000000  00000-0  00000-0 2 25891
2 62717 037.7367 358.3376 9414396 349.1891 218.6030 00.09277151    06

# Worst residual: 15.93 km
# MJD 60708.000000 (2025 Feb  2  0:00)
Hakuto-R = 2025-010B = NORAD 62717
1 62717U 25010B   25033.49919926  .00000000  00000-0  00000-0 2 25892
2 62717 037.8536 358.3145 9420873 349.2929 251.5033 00.09299388    04

# Worst residual: 13.53 km
# MJD 60709.000000 (2025 Feb  3  0:00)
Hakuto-R = 2025-010B = NORAD 62717
1 62717U 25010B   25034.49919926  .00000000  00000-0  00000-0 2 25893
2 62717 037.9238 358.3068 9423726 349.3751 284.6174 00.09327739    07

# Worst residual: 9.24 km
# MJD 60710.000000 (2025 Feb  4  0:00)
Hakuto-R = 2025-010B = NORAD 62717
1 62717U 25010B   25035.49919926  .00000000  00000-0  00000-0 2 25894
2 62717 037.9542 358.3057 9423565 349.4223 318.0031 00.09358031    02

# Worst residual: 6.52 km
# MJD 60711.000000 (2025 Feb  5  0:00)
Hakuto-R = 2025-010B = NORAD 62717
1 62717U 25010B   25036.49919926  .00000000  00000-0  00000-0 2 25895
2 62717 037.9550 358.3010 9422253 349.4399 351.6555 00.09384359    03
